NORAD_CAT_ID,OBJECT_NAME,OBJECT_TYPE,EPOCH,MEAN_MOTION,ECCENTRICITY,INCLINATION,RA_OF_ASC_NODE,ARG_OF_PERICENTER,MEAN_ANOMALY,BSTAR,MEAN_MOTION_DOT,MEAN_MOTION_DDOT,TLE_LINE0,TLE_LINE1,TLE_LINE2,SEMIMAJOR_AXIS,PERIOD,APOGEE,PERIGEE,DECAYED
52657.0,STARLINK-4084,PAYLOAD,2023-03-29 00:46:44,15.08869329,0.000127,53.2159,307.4235,76.3747,283.7386,0.0010214,0.00016018,0.0,0 STARLINK-4084,1 52657U 22053B   23088.03245793  .00016018  00000-0  10214-2 0  9997,2 52657  53.2159 307.4235 0001270  76.3747 283.7386 15.08869329 48875,6917.791,95.436,540.534,538.777,0.0
52657.0,STARLINK-4084,PAYLOAD,2023-03-29 18:15:59,15.08845148,0.0001279,53.2154,304.1537,100.6292,259.4844,0.0011828,0.00018589,0.0,0 STARLINK-4084,1 52657U 22053B   23088.76110386  .00018589  00000-0  11828-2 0  9993,2 52657  53.2154 304.1537 0001279 100.6292 259.4844 15.08845148 48988,6917.865,95.437,540.614,538.845,0.0
52657.0,STARLINK-4084,PAYLOAD,2023-03-29 19:51:22,15.08845435,0.0001207,53.2155,303.8565,95.3133,264.7996,0.0012571,0.00019778,0.0,0 STARLINK-4084,1 52657U 22053B   23088.82734391  .00019778  00000-0  12571-2 0  9995,2 52657  53.2155 303.8565 0001207  95.3133 264.7996 15.08845435 48998,6917.864,95.437,540.564,538.894,0.0
52657.0,STARLINK-4084,PAYLOAD,2023-03-30 13:20:37,15.08837921,0.0001427,53.2153,300.5856,92.6149,267.5006,0.00049373,7.578e-05,0.0,0 STARLINK-4084,1 52657U 22053B   23089.55598627  .00007578  00000-0  49373-3 0  9992,2 52657  53.2153 300.5856 0001427  92.6149 267.5006 15.08837921 49102,6917.887,95.438,540.739,538.765,0.0
52657.0,STARLINK-4084,PAYLOAD,2023-03-30 21:17:32,15.08838358,0.0001386,53.2154,299.0985,92.8515,267.2636,0.00083466,0.0001302,0.0,0 STARLINK-4084,1 52657U 22053B   23089.88718732  .00013020  00000-0  83466-3 0  9999,2 52657  53.2154 299.0985 0001386  92.8515 267.2636 15.08838358 49157,6917.885,95.438,540.709,538.792,0.0
52657.0,STARLINK-4084,PAYLOAD,2023-03-31 19:32:56,15.08846311,0.0001127,53.215,294.9329,102.0083,258.1036,0.0002812,4.191e-05,0.0,0 STARLINK-4084,1 52657U 22053B   23090.81454336  .00004191  00000-0  28120-3 0  9996,2 52657  53.2150 294.9329 0001127 102.0083 258.1036 15.08846311 49292,6917.861,95.437,540.506,538.946,0.0
52657.0,STARLINK-4084,PAYLOAD,2023-04-01 00:19:05,15.08849349,0.0001091,53.215,294.0398,99.1474,260.9641,0.00031441,4.721e-05,0.0,0 STARLINK-4084,1 52657U 22053B   23091.01326201  .00004721  00000-0  31441-3 0  9997,2 52657  53.2150 294.0398 0001091  99.1474 260.9641 15.08849349 49320,6917.852,95.437,540.472,538.962,0.0
52657.0,STARLINK-4084,PAYLOAD,2023-04-01 19:23:44,15.08832532,0.0001168,53.2159,290.4778,49.8312,310.2782,-4.2488e-05,-9.64e-06,0.0,0 STARLINK-4084,1 52657U 22053B   23091.80815114 -.00000964  00000-0 -42488-4 0  9991,2 52657  53.2159 290.4778 0001168  49.8312 310.2782 15.08832532 49443,6917.903,95.438,540.576,538.96,0.0
52657.0,STARLINK-4084,PAYLOAD,2023-04-01 20:59:07,15.08838877,0.0001128,53.2151,290.1716,109.1848,250.9266,0.00014562,2.03e-05,0.0,0 STARLINK-4084,1 52657U 22053B   23091.87438743  .00002030  00000-0  14562-3 0  9992,2 52657  53.2151 290.1716 0001128 109.1848 250.9266 15.08838877 49450,6917.884,95.438,540.529,538.968,0.0
52657.0,STARLINK-4084,PAYLOAD,2023-04-02 12:52:58,15.08842397,0.0001058,53.2149,287.2019,94.0667,266.0446,0.00029414,4.397e-05,0.0,0 STARLINK-4084,1 52657U 22053B   23092.53678956  .00004397  00000-0  29414-3 0  9998,2 52657  53.2149 287.2019 0001058  94.0667 266.0446 15.08842397 49554,6917.873,95.437,540.47,539.006,0.0
52657.0,STARLINK-4084,PAYLOAD,2023-04-02 19:14:31,15.08849099,0.0001107,53.2148,286.0146,81.263,278.8487,0.00057332,8.851e-05,0.0,0 STARLINK-4084,1 52657U 22053B   23092.80174851  .00008851  00000-0  57332-3 0  9992,2 52657  53.2148 286.0146 0001107  81.2630 278.8487 15.08849099 49590,6917.853,95.437,540.483,538.952,0.0
52657.0,STARLINK-4084,PAYLOAD,2023-04-03 12:43:45,15.08846022,8.75e-05,53.2146,282.7425,89.0576,271.0516,0.00029765,4.453e-05,0.0,0 STARLINK-4084,1 52657U 22053B   23093.53038888  .00004453  00000-0  29765-3 0  9995,2 52657  53.2146 282.7425 0000875  89.0576 271.0516 15.08846022 49701,6917.862,95.437,540.332,539.122,0.0
52657.0,STARLINK-4084,PAYLOAD,2023-04-03 19:05:18,15.08844881,9.92e-05,53.2151,281.5539,88.2632,271.8474,0.00023048,3.383e-05,0.0,0 STARLINK-4084,1 52657U 22053B   23093.79534888  .00003383  00000-0  23048-3 0  9993,2 52657  53.2151 281.5539 0000992  88.2632 271.8474 15.08844881 49740,6917.865,95.437,540.417,539.044,0.0
52657.0,STARLINK-4084,PAYLOAD,2023-04-04 12:34:32,15.08840308,6.37e-05,53.2144,278.2819,87.4277,272.6788,0.000193,2.785e-05,0.0,0 STARLINK-4084,1 52657U 22053B   23094.52399045  .00002785  00000-0  19300-3 0  9990,2 52657  53.2144 278.2819 0000637  87.4277 272.6788 15.08840308 49857,6917.879,95.438,540.185,539.304,0.0
52657.0,STARLINK-4084,PAYLOAD,2023-04-05 12:25:19,15.08838666,7.34e-05,53.2132,273.8196,92.4919,267.6157,0.00011114,1.482e-05,0.0,0 STARLINK-4084,1 52657U 22053B   23095.51759179  .00001482  00000-0  11114-3 0  9996,2 52657  53.2132 273.8196 0000734  92.4919 267.6157 15.08838666 50007,6917.884,95.438,540.257,539.242,0.0
52657.0,STARLINK-4084,PAYLOAD,2023-04-05 18:46:52,15.08839332,9.09e-05,53.2138,272.6306,90.5598,269.5498,9.1418e-05,1.167e-05,0.0,0 STARLINK-4084,1 52657U 22053B   23095.78255160  .00001167  00000-0  91418-4 0  9992,2 52657  53.2138 272.6306 0000909  90.5598 269.5498 15.08839332 50043,6917.882,95.438,540.376,539.119,0.0
52657.0,STARLINK-4084,PAYLOAD,2023-04-06 12:16:07,15.08834979,0.0001149,53.2152,269.3603,104.1355,255.9765,3.6298e-05,2.9e-06,0.0,0 STARLINK-4084,1 52657U 22053B   23096.51119472  .00000290  00000-0  36298-4 0  9990,2 52657  53.2152 269.3603 0001149 104.1355 255.9765 15.08834979 50152,6917.896,95.438,540.556,538.966,0.0
52657.0,STARLINK-4084,PAYLOAD,2023-04-06 18:37:39,15.08841578,0.0001237,53.2165,268.1718,112.1994,247.913,0.00010974,1.459e-05,0.0,0 STARLINK-4084,1 52657U 22053B   23096.77615125  .00001459  00000-0  10974-3 0  9994,2 52657  53.2165 268.1718 0001237 112.1994 247.9130 15.08841578 50190,6917.876,95.437,540.596,538.885,0.0
52657.0,STARLINK-4084,PAYLOAD,2023-04-07 04:09:58,15.0884583,7.48e-05,53.2151,266.3858,85.2312,274.8765,0.00016145,2.283e-05,0.0,0 STARLINK-4084,1 52657U 22053B   23097.17358886  .00002283  00000-0  16145-3 0  9999,2 52657  53.2151 266.3858 0000748  85.2312 274.8765 15.08845830 50255,6917.863,95.437,540.245,539.21,0.0
52657.0,STARLINK-4084,PAYLOAD,2023-04-07 12:06:54,15.08837326,0.0001177,53.2182,264.9013,105.267,254.8452,7.993e-05,9.84e-06,0.0,0 STARLINK-4084,1 52657U 22053B   23097.50479365  .00000984  00000-0  79930-4 0  9990,2 52657  53.2182 264.9013 0001177 105.2670 254.8452 15.08837326 50301,6917.889,95.438,540.568,538.939,0.0
52657.0,STARLINK-4084,PAYLOAD,2023-04-08 10:22:18,15.08845188,6.83e-05,53.2171,260.7367,93.289,266.818,-0.00022399,-3.851e-05,0.0,0 STARLINK-4084,1 52657U 22053B   23098.43215844 -.00003851  00000-0 -22399-3 0  9997,2 52657  53.2171 260.7367 0000683  93.2890 266.8180 15.08845188 50447,6917.865,95.437,540.202,539.257,0.0
52657.0,STARLINK-4084,PAYLOAD,2023-04-08 19:54:37,15.08836464,0.000151,53.2186,258.9535,91.3715,268.745,8.6727e-05,1.092e-05,0.0,0 STARLINK-4084,1 52657U 22053B   23098.82960139  .00001092  00000-0  86727-4 0  9993,2 52657  53.2186 258.9535 0001510  91.3715 268.7450 15.08836464 50509,6917.891,95.438,540.801,538.712,0.0
52657.0,STARLINK-4084,PAYLOAD,2023-04-09 10:13:06,15.0883408,0.0001349,53.2172,256.276,77.9537,282.1606,6.0644e-05,6.77e-06,0.0,0 STARLINK-4084,1 52657U 22053B   23099.42576449  .00000677  00000-0  60644-4 0  9995,2 52657  53.2172 256.2760 0001349  77.9537 282.1606 15.08834080 50591,6917.898,95.438,540.697,538.83,0.0
52657.0,STARLINK-4084,PAYLOAD,2023-04-09 16:34:38,15.08838828,0.000121,53.2162,255.0866,77.5872,282.5255,0.00010258,1.345e-05,0.0,0 STARLINK-4084,1 52657U 22053B   23099.69072039  .00001345  00000-0  10258-3 0  9998,2 52657  53.2162 255.0866 0001210  77.5872 282.5255 15.08838828 50632,6917.884,95.438,540.586,538.912,0.0
52657.0,STARLINK-4084,PAYLOAD,2023-04-10 03:42:19,15.08839762,0.0001201,53.216,253.0048,79.7778,280.3349,0.00019946,2.888e-05,0.0,0 STARLINK-4084,1 52657U 22053B   23100.15439814  .00002888  00000-0  19946-3 0  9996,2 52657  53.2160 253.0048 0001201  79.7778 280.3349 15.08839762 50705,6917.881,95.438,540.577,538.915,0.0
52657.0,STARLINK-4084,PAYLOAD,2023-04-10 10:03:52,15.08840434,0.0001212,53.216,251.8153,79.7006,280.4123,0.00019433,2.806e-05,0.0,0 STARLINK-4084,1 52657U 22053B   23100.41935879  .00002806  00000-0  19433-3 0  9998,2 52657  53.2160 251.8153 0001212  79.7006 280.4123 15.08840434 50747,6917.879,95.438,540.583,538.906,0.0
52657.0,STARLINK-4084,PAYLOAD,2023-04-10 16:25:24,15.08847177,0.0001156,53.2163,250.6261,77.8234,282.2888,0.00024112,3.552e-05,0.0,0 STARLINK-4084,1 52657U 22053B   23100.68431326  .00003552  00000-0  24112-3 0  9994,2 52657  53.2163 250.6261 0001156  77.8234 282.2888 15.08847177 50789,6917.858,95.437,540.523,538.924,0.0
52657.0,STARLINK-4084,PAYLOAD,2023-04-11 09:54:39,15.0884159,0.0001686,53.215,247.3558,77.6279,282.4901,0.00011138,1.485e-05,0.0,0 STARLINK-4084,1 52657U 22053B   23101.41295918  .00001485  00000-0  11138-3 0  9998,2 52657  53.2150 247.3558 0001686  77.6279 282.4901 15.08841590 50895,6917.876,95.437,540.907,538.574,0.0
52657.0,STARLINK-4084,PAYLOAD,2023-04-12 09:45:26,15.08842066,0.0001486,53.2131,242.8932,91.9229,268.1933,-1.4141e-05,-5.13e-06,0.0,0 STARLINK-4084,1 52657U 22053B   23102.40655794 -.00000513  00000-0 -14141-4 0  9991,2 52657  53.2131 242.8932 0001486  91.9229 268.1933 15.08842066 51045,6917.874,95.437,540.767,538.711,0.0
52657.0,STARLINK-4084,PAYLOAD,2023-04-13 09:36:13,15.0883691,0.000107,53.2182,238.4348,101.8848,258.2264,0.00021595,3.15e-05,0.0,0 STARLINK-4084,1 52657U 22053B   23103.40016135  .00003150  00000-0  21595-3 0  9990,2 52657  53.2182 238.4348 0001070 101.8848 258.2264 15.08836910 51194,6917.89,95.438,540.495,539.015,0.0
